ONEWEB-0098             
1 45442U 20020U   25048.63170349  .00000539  00000+0  14862-2 0  9994
2 45442  87.8870 117.6555 0002143  97.4046 262.7326 13.11417920239134
ONEWEB-0055             
1 45443U 20020V   25048.92246352 -.00000052  00000+0 -18318-3 0  9998
2 45443  87.8871 117.6008 0001987 102.5776 257.5574 13.11417960239144
ONEWEB-0093             
1 45444U 20020W   25049.20319857 -.00000384  00000+0 -11205-2 0  9997
2 45444  87.8869 117.5279 0002124 108.7434 251.3925 13.11415123239257
ONEWEB-0029             
1 45445U 20020X   25049.22170464 -.00000362  00000+0 -10564-2 0  9992
2 45445  87.8872 117.5378 0001875 108.6599 251.4733 13.11418852239233
ONEWEB-0068             
1 45446U 20020Y   25049.20291667 -.00000330  00000+0 -96610-3 0  9992
2 45446  87.8869 117.5297 0001963 108.0064 252.1278 13.11414196239171
ONEWEB-0046             
1 45447U 20020Z   25048.88938819 -.00000065  00000+0 -21925-3 0  9995
2 45447  87.8870 117.6016 0001615 106.9615 253.1690 13.11413507239137
ONEWEB-0063             
1 45448U 20020AA  25048.91821756 -.00000185  00000+0 -55791-3 0  9992
2 45448  87.8871 117.5948 0001642  99.1514 260.9799 13.11418840239224
ONEWEB-0019             
1 45449U 20020AB  25049.19796553 -.00000176  00000+0 -53329-3 0  9995
2 45449  87.8873 117.5521 0001949  98.0477 262.0872 13.11413701239114
